CSS (TIANHE)            
1 48274U 21035A   23288.05115686  .00026837  00000+0  30796-3 0  9994
2 48274  41.4704 146.1280 0001839  85.1534 274.9515 15.61451530140577
